{
  "norad_id": 67056,
  "name": "STARLINK-36143",
  "history": [
    {
      "epoch": "2026-03-28T20:48:21.939840Z",
      "apogee_km": 484.03257633353587,
      "perigee_km": 481.96339524452287,
      "latitude_deg": 9.060087918381813e-06,
      "longitude_deg": 151.26628181313723,
      "height_km": 482.7838756472268,
      "semi_major_axis_km": 6861.134985789029,
      "eccentricity": 0.00015079,
      "inclination_deg": 43.0032,
      "raan_deg": 289.6389,
      "arg_perigee_deg": 269.5156,
      "mean_anomaly_deg": 90.5523,
      "mean_motion_rev_day": 15.27597069
    }
  ]
}