{"fetched_at":"2026-03-29T16:36:15Z","count":15609,"tles":[{"name":"STARLINK-36143","line1":"1 67056U 25294AC  26087.86692060  .00027688  00000+0  10114-2 0  9995","line2":"2 67056  43.0032 289.6389 0001507 269.5156  90.5523 15.27597069 17733","category":"Starlink"}]}